[{"OBJECT_NAME":"TIGER-6","OBJECT_ID":"2023-174S","EPOCH":"2026-03-09T17:36:28.852992","MEAN_MOTION":15.68857868,"ECCENTRICITY":0.0003121,"INCLINATION":97.3904,"RA_OF_ASC_NODE":161.9275,"ARG_OF_PERICENTER":155.9023,"MEAN_ANOMALY":204.2385,"EPHEMERIS_TYPE":0,"CLASSIFICATION_TYPE":"U","NORAD_CAT_ID":58272,"ELEMENT_SET_NO":999,"REV_AT_EPOCH":13064,"BSTAR":0.00098002434,"MEAN_MOTION_DOT":0.00113437,"MEAN_MOTION_DDOT":0},{"OBJECT_NAME":"ARIANE 5 R\/B","OBJECT_ID":"2010-056C","EPOCH":"2026-03-09T14:52:54.954336","MEAN_MOTION":2.89057155,"ECCENTRICITY":0.68262336,"INCLINATION":2.703,"RA_OF_ASC_NODE":11.1982,"ARG_OF_PERICENTER":135.3863,"MEAN_ANOMALY":306.3661,"EPHEMERIS_TYPE":0,"CLASSIFICATION_TYPE":"U","NORAD_CAT_ID":37208,"ELEMENT_SET_NO":999,"REV_AT_EPOCH":14293,"BSTAR":0.0011387323,"MEAN_MOTION_DOT":9.228e-5,"MEAN_MOTION_DDOT":0}]
